{
    "RECORDS": [
        {
            "CCSDS_OPM_VERS": 91693.33,
            "CREATION_DATE": "2065-01-27T06:28:13.521Z",
            "ORIGINATOR": "Mitchell, Ullrich and Pollich",
            "OBJECT_NAME": "YQ6^7aht3z",
            "OBJECT_ID": "[^HS{t|J6P",
            "CENTER_NAME": "\"Ot>(Ba?by",
            "REF_FRAME": 9,
            "REF_FRAME_EPOCH": "2001-06-20T06:57:35.274Z",
            "TIME_SYSTEM": 9,
            "COMMENT": "r?)VPb.+HZ",
            "EPOCH": "2067-08-25T15:59:15.608Z",
            "X": 42869.63,
            "Y": 80284.53,
            "Z": 67237.21,
            "X_DOT": 68317.08,
            "Y_DOT": 26368.32,
            "Z_DOT": 41930.93,
            "SEMI_MAJOR_AXIS": 29266.56,
            "ECCENTRICITY": 26798.76,
            "INCLINATION": 85475.5,
            "RA_OF_ASC_NODE": 21591.09,
            "ARG_OF_PERICENTER": 60314.66,
            "TRUE_ANOMALY": 87290.43,
            "MEAN_ANOMALY": 8291.87,
            "GM": 21456.85,
            "MASS": 21839.58,
            "SOLAR_RAD_AREA": 53189.25,
            "SOLAR_RAD_COEFF": 79444.88,
            "DRAG_AREA": 76080.44,
            "DRAG_COEFF": 11067.81,
            "COV_REF_FRAME": 1,
            "CX_X": 86260.27,
            "CY_X": 75898.97,
            "CY_Y": 24621.1,
            "CZ_X": 56636.59,
            "CZ_Y": 88433.64,
            "CZ_Z": 24583.52,
            "CX_DOT_X": 64553.33,
            "CX_DOT_Y": 2196.4,
            "CX_DOT_Z": 46369.37,
            "CX_DOT_X_DOT": 99583.79,
            "CY_DOT_X": 99736.03,
            "CY_DOT_Y": 34553.35,
            "CY_DOT_Z": 32022.87,
            "CY_DOT_X_DOT": 37326.35,
            "CY_DOT_Y_DOT": 22920.56,
            "CZ_DOT_X": 61798.86,
            "CZ_DOT_Y": 9527.13,
            "CZ_DOT_Z": 7676.42,
            "CZ_DOT_X_DOT": 12506.04,
            "CZ_DOT_Y_DOT": 81157.93,
            "CZ_DOT_Z_DOT": 4381.22,
            "MANEUVERS": [
                {
                    "MAN_EPOCH_IGNITION": "2048-01-14T15:42:53.978Z",
                    "MAN_DURATION": 64374.04,
                    "MAN_DELTA_MASS": 62743.67,
                    "MAN_REF_FRAME": 0,
                    "MAN_DV_1": 92873.88,
                    "MAN_DV_2": 54405.48,
                    "MAN_DV_3": 66983
                },
                {
                    "MAN_EPOCH_IGNITION": "2057-09-08T07:28:44.676Z",
                    "MAN_DURATION": 14390.14,
                    "MAN_DELTA_MASS": 85125.89,
                    "MAN_REF_FRAME": 1,
                    "MAN_DV_1": 18295.83,
                    "MAN_DV_2": 86844.59,
                    "MAN_DV_3": 99287.87
                }
            ],
            "USER_DEFINED_BIP_0044_TYPE": 2948759031,
            "USER_DEFINED_OBJECT_DESIGNATOR": "Ch/&p^Eby&",
            "USER_DEFINED_EARTH_MODEL": "yYGJcEpok2",
            "USER_DEFINED_EPOCH_TIMESTAMP": 67739.16,
            "USER_DEFINED_EPOCH_MICROSECONDS": 42709.28
        }
    ]
}